SOYUZ-MS 28             
1 66664U 25275A   25360.85713458  .00014958  00000+0  27092-3 0  9995
2 66664  51.6319  72.5609 0003230 307.0606  53.0087 15.49855582  4632
1998-067XS              
1 66906U 98067XS  25360.64712988  .00028830  00000+0  48785-3 0  9993
2 66906  51.6319  73.4106 0002673 274.6449  85.4236 15.51325960  3771
1998-067XT              
1 66907U 98067XT  25360.50352882  .00061851  00000+0  96732-3 0  9997
2 66907  51.6314  73.9516 0003816 309.8325  50.2329 15.53165234  3750
1998-067XU              
1 66908U 98067XU  25360.75974016  .00061456  00000+0  95802-3 0  9992
2 66908  51.6313  72.6614 0003869 309.5614  50.5034 15.53257933  3799
SILVERSAT               
1 66909U 98067XV  25360.50054296  .00069652  00000+0  10737-2 0  9994
2 66909  51.6312  73.9315 0003773 313.4073  46.6603 15.53512588  3752
1998-067XW              
1 66910U 98067XW  25360.62762818  .00074776  00000+0  11547-2 0  9998
2 66910  51.6301  73.2786 0003732 284.7259  75.3317 15.53436341  3773
1998-067XX              
1 66911U 98067XX  25360.49466529  .00077346  00000+0  11709-2 0  9990
2 66911  51.6301  73.8915 0003493 292.7420  67.3201 15.53969140  3745
1998-067XY              
1 66912U 98067XY  25360.50885515  .00048771  00000+0  78444-3 0  9993
2 66912  51.6314  73.9869 0003823 301.1826  58.8789 15.52489248  3742
